#aV2021  2 21  0  0  0.00000000     288 DD+AD WGS84 FIT  NGA
## 2146      0.00000000   300.00000000 59266 0.0000000000000
+   32     1  2  3  4  5  6  7  8  9 10 11 12 13 14 15 16 17
+         18 19 20 21 22 23 24 25 26 27 28 29 30 31 32  0  0
+          0  0  0  0  0  0  0  0  0  0  0  0  0  0  0  0  0
+          0  0  0  0  0  0  0  0  0  0  0  0  0  0  0  0  0
+          0  0  0  0  0  0  0  0  0  0  0  0  0  0  0  0  0
++         2  2  2  2  2  2  2  2  2  2  2  2  2  2  2  2  2
++         2  2  2  2  2  2  2  2  2  2  2  2  2  2  2  0  0
++         0  0  0  0  0  0  0  0  0  0  0  0  0  0  0  0  0
++         0  0  0  0  0  0  0  0  0  0  0  0  0  0  0  0  0
++         0  0  0  0  0  0  0  0  0  0  0  0  0  0  0  0  0
%c cc cc ccc ccc cccc cccc cccc cccc ccccc ccccc ccccc ccccc
%c cc cc ccc ccc cccc cccc cccc cccc ccccc ccccc ccccc ccccc
%f  0.0000000  0.000000000  0.00000000000  0.000000000000000
%f  0.0000000  0.000000000  0.00000000000  0.000000000000000
%i    0    0    0    0      0      0      0      0         0
%i    0    0    0    0      0      0      0      0         0
/*      NGA, ST. LOUIS,MO.                                  
/*   EPHEMERIS COMPUTED FROM 2 DAYS OF DATA                 
/*   EPOCHA v5 SMOOTHER                                     
/*   G2139 IERS2010 SATAF SATAPC                            
*  2021  2 21  4 20  0.00000000
P  1  17209.796390  13804.651299 -15279.125274    756.860705                    
V  1 -18667.535520  -2450.717063 -23285.909820     -0.079709                    
P  2   7080.930727 -14473.590308  21780.477948   -579.012774                    
V  2  25886.072898   3447.051100  -6292.871427     -0.038825                    
P  3  13106.558087  21881.903840   7519.251526    -88.647720                    
V  3    945.087633   9857.968901 -29915.044931     -0.102268                    
P  4   7311.354631  14056.976275  21313.039138   -181.654867                    
V  4 -18773.026825  19500.283004  -6475.524779     -0.025756                    
P  5  -2134.063968 -24463.705999   9735.163169    -34.267574                    
V  5   7243.785133  10750.479536  28347.913187     -0.010263                    
P  6  20064.754170  -7050.233844  16011.040621     -2.151866                    
V  6  19520.959491   5157.454817 -22229.234362      0.012958                    
P  7  25794.612952   7018.763782   2599.039701     66.020028                    
V  7  -3317.201617   2039.771979  31009.796858      0.130941                    
P  8   1070.682238  18759.355016 -18643.052404    -11.082178                    
V  8 -16366.353872  17307.927991  16762.815318     -0.013887                    
P  9  16630.461729   2734.969343  20470.674051   -324.826103                    
V  9 -15976.614245  20728.447370  10156.998837     -0.034790                    
P 10 -14331.992576   4453.103306 -21806.572768    -65.986934                    
V 10  -9334.414025 -26320.016091    497.099757     -0.081345                    
P 11   9542.031438  13933.590727 -20903.455968    -18.768967                    
V 11 -24386.508668   8414.824407  -6014.132856      0.106086                    
P 12  -9174.627206 -24731.329600   3519.297483     -4.027933                    
V 12    917.538726  -5171.081297 -31546.862542     -0.052718                    
P 13   9775.829540 -20899.691511 -13180.811136     99.606992                    
V 13  13746.379355  -9455.644793  25568.509356      0.043338                    
P 14  15124.804311  -2609.382192 -21688.469321     98.095641                    
V 14   7690.199012  26425.468252   2174.141180      0.019834                    
P 15  -4041.811568 -18742.659252 -18589.857943   -167.987558                    
V 15  14672.213056 -17981.575144  15592.264537      0.025830                    
P 16  -1913.783050  23639.992193  11222.282032   -283.267156                    
V 16  -5961.406165 -13721.761858  27763.679883     -0.057071                    
P 17  21122.278682 -12650.834809  -9521.963786    397.753138                    
V 17  -7393.314099  10509.335180 -29058.187849      0.063607                    
P 18 -26124.600639  -4868.603296   -977.403906    348.190227                    
V 18   -668.817920  -2782.041639  31816.142296      0.015597                    
P 19  20400.959325 -16760.098472  -2656.031817    -35.729571                    
V 19   -691.673869   3683.006493 -32033.687596      0.050145                    
P 20 -18540.375979  -7722.596725 -17564.495224    524.590731                    
V 20  -8535.831694 -20550.286792  17829.192313     -0.001890                    
P 21  10223.635556  14706.257764 -19023.233226     97.330280                    
V 21 -25593.638842  -1663.013431 -14065.473278      0.031610                    
P 22  10209.559208  24572.268265  -1360.754163   -675.107839                    
V 22  -4019.427976   -305.978240 -30970.596554      0.075937                    
P 23 -16971.822504  -7328.385402 -19107.271920    118.403607                    
V 23  -7340.884047 -23091.490122  15355.414513     -0.000495                    
P 24 -12748.151009 -15056.338838 -18196.878293      2.061151                    
V 24  22606.628799   1045.002327 -16534.842455     -0.005578                    
P 25 -16202.220441 -14756.785464  14940.880146     84.705805                    
V 25  -4578.432249 -18863.511612 -22923.977446      0.076092                    
P 26  -8010.537091  16806.824876  18792.498378     47.927153                    
V 26 -10541.381779 -21767.079409  15195.358418      0.054723                    
P 27 -10415.141782  22240.321426  -9787.246585    -80.398998                    
V 27  -9771.714367   7812.776655  28971.130744     -0.073798                    
P 28  13658.187408  -5663.639050 -21515.767210    612.548346                    
V 28   7008.692316  27749.149288  -2602.131653     -0.054649                    
P 29 -15938.890071  -3647.222304  20898.895070   -298.831989                    
V 29  18260.542657 -19289.907658  10500.424504     -0.070397                    
P 30  24920.802316  -1577.583506  -9327.907930   -387.909213                    
V 30  10956.524688   5514.220055  27971.852947     -0.057120                    
P 31 -18436.757169   8498.738775  17285.208321   -101.346686                    
V 31 -21116.785147  -6151.498029 -18950.587024     -0.022794                    
P 32 -20378.968625  14279.904700  -8943.569723     19.417246                    
V 32   5323.282083 -10631.667127 -28955.098919      0.011666                    
EOF
